start=new Date('2023-06-14T00:00:00.000Z').valueOf();
sats=[{"SEMIMAJOR_AXIS":"6937.218","OBJECT_ID":"2023-046F","MEAN_MOTION":"15.02535444","FILE":"3932371","REF_FRAME":"TEME","PERIOD":"95.838","EPHEMERIS_TYPE":"0","COUNTRY_CODE":"US","NORAD_CAT_ID":"56098","EPOCH":"2023-06-13T18:17:55.895136","BSTAR":"-0.00000323630000","TLE_LINE1":"1 56098U 23046F   23164.76245249 -.00000247  00000-0 -32363-5 0  9995","OBJECT_NAME":"STARLINK-6088","MEAN_ANOMALY":"86.2042","APOAPSIS":"559.965","TIME_SYSTEM":"UTC","LAUNCH_DATE":"2023-03-29","MEAN_MOTION_DDOT":"0.0000000000000","RA_OF_ASC_NODE":"192.5617","CENTER_NAME":"EARTH","SITE":"AFETR","TLE_LINE2":"2 56098  43.0014 192.5617 0001271 273.8655  86.2042 15.02535444 11647","ECCENTRICITY":"0.00012710","PERIAPSIS":"558.202","ARG_OF_PERICENTER":"273.8655","CLASSIFICATION_TYPE":"U","DECAY_DATE":null,"ELEMENT_SET_NO":"999","MEAN_ELEMENT_THEORY":"SGP4","INCLINATION":"43.0014","GP_ID":"233875181","MEAN_MOTION_DOT":"-0.00000247","OBJECT_TYPE":"PAYLOAD","REV_AT_EPOCH":"1164","RCS_SIZE":"LARGE"},{"TLE_LINE1":"1 56099U 23046G   23164.55191833 -.00000293  00000-0 -66448-5 0  9994","MEAN_ANOMALY":"85.3187","OBJECT_NAME":"STARLINK-6093","NORAD_CAT_ID":"56099","COUNTRY_CODE":"US","EPOCH":"2023-06-13T13:14:45.743712","BSTAR":"-0.00000664480000","LAUNCH_DATE":"2023-03-29","MEAN_MOTION_DDOT":"0.0000000000000","APOAPSIS":"560.036","TIME_SYSTEM":"UTC","SEMIMAJOR_AXIS":"6937.216","MEAN_MOTION":"15.02536161","OBJECT_ID":"2023-046G","EPHEMERIS_TYPE":"0","FILE":"3932371","REF_FRAME":"TEME","PERIOD":"95.838","CLASSIFICATION_TYPE":"U","PERIAPSIS":"558.126","ARG_OF_PERICENTER":"274.7498","DECAY_DATE":null,"ELEMENT_SET_NO":"999","SITE":"AFETR","TLE_LINE2":"2 56099  43.0010 193.5621 0001376 274.7498  85.3187 15.02536161 11615","ECCENTRICITY":"0.00013760","OBJECT_TYPE":"PAYLOAD","REV_AT_EPOCH":"1161","RCS_SIZE":"LARGE","MEAN_ELEMENT_THEORY":"SGP4","INCLINATION":"43.0010","GP_ID":"233876434","MEAN_MOTION_DOT":"-0.00000293","RA_OF_ASC_NODE":"193.5621","CENTER_NAME":"EARTH"},{"MEAN_MOTION":"15.02533872","OBJECT_ID":"2023-046H","SEMIMAJOR_AXIS":"6937.223","FILE":"3932134","PERIOD":"95.838","REF_FRAME":"TEME","EPHEMERIS_TYPE":"0","NORAD_CAT_ID":"56100","COUNTRY_CODE":"US","BSTAR":"0.00005186600000","EPOCH":"2023-06-13T11:35:50.385984","TLE_LINE1":"1 56100U 23046H   23164.48322206  .00000497  00000-0  51866-4 0  9990","OBJECT_NAME":"STARLINK-6076","MEAN_ANOMALY":"86.2119","TIME_SYSTEM":"UTC","APOAPSIS":"560.036","LAUNCH_DATE":"2023-03-29","MEAN_MOTION_DDOT":"0.0000000000000","RA_OF_ASC_NODE":"193.9062","CENTER_NAME":"EARTH","TLE_LINE2":"2 56100  43.0009 193.9062 0001367 273.8566  86.2119 15.02533872 11605","SITE":"AFETR","ECCENTRICITY":"0.00013670","ARG_OF_PERICENTER":"273.8566","PERIAPSIS":"558.140","CLASSIFICATION_TYPE":"U","ELEMENT_SET_NO":"999","DECAY_DATE":null,"INCLINATION":"43.0009","MEAN_ELEMENT_THEORY":"SGP4","GP_ID":"233843474","MEAN_MOTION_DOT":"0.00000497","OBJECT_TYPE":"PAYLOAD","REV_AT_EPOCH":"1160","RCS_SIZE":"LARGE"},{"TLE_LINE1":"1 56101U 23046J   23164.47989191 -.00000572  00000-0 -27275-4 0  9995","MEAN_ANOMALY":"85.0157","OBJECT_NAME":"STARLINK-6095","NORAD_CAT_ID":"56101","COUNTRY_CODE":"US","EPOCH":"2023-06-13T11:31:02.661024","BSTAR":"-0.00002727500000","LAUNCH_DATE":"2023-03-29","MEAN_MOTION_DDOT":"0.0000000000000","TIME_SYSTEM":"UTC","APOAPSIS":"560.107","OBJECT_ID":"2023-046J","MEAN_MOTION":"15.02534171","SEMIMAJOR_AXIS":"6937.222","EPHEMERIS_TYPE":"0","FILE":"3932134","REF_FRAME":"TEME","PERIOD":"95.838","PERIAPSIS":"558.067","ARG_OF_PERICENTER":"275.0518","CLASSIFICATION_TYPE":"U","ELEMENT_SET_NO":"999","DECAY_DATE":null,"TLE_LINE2":"2 56101  43.0008 193.8810 0001470 275.0518  85.0157 15.02534171 11603","SITE":"AFETR","ECCENTRICITY":"0.00014700","OBJECT_TYPE":"PAYLOAD","REV_AT_EPOCH":"1160","RCS_SIZE":"LARGE","INCLINATION":"43.0008","MEAN_ELEMENT_THEORY":"SGP4","MEAN_MOTION_DOT":"-0.00000572","GP_ID":"233844224","RA_OF_ASC_NODE":"193.8810","CENTER_NAME":"EARTH"},{"OBJECT_ID":"2023-046K","MEAN_MOTION":"15.02536861","SEMIMAJOR_AXIS":"6937.214","EPHEMERIS_TYPE":"0","REF_FRAME":"TEME","PERIOD":"95.838","FILE":"3932134","TLE_LINE1":"1 56102U 23046K   23164.48765929  .00000554  00000-0  56072-4 0  9993","MEAN_ANOMALY":"86.5434","OBJECT_NAME":"STARLINK-6075","BSTAR":"0.00005607200000","EPOCH":"2023-06-13T11:42:13.762656","COUNTRY_CODE":"US","NORAD_CAT_ID":"56102","MEAN_MOTION_DDOT":"0.0000000000000","LAUNCH_DATE":"2023-03-29","TIME_SYSTEM":"UTC","APOAPSIS":"560.109","RA_OF_ASC_NODE":"193.9403","CENTER_NAME":"EARTH","ELEMENT_SET_NO":"999","DECAY_DATE":null,"PERIAPSIS":"558.049","CLASSIFICATION_TYPE":"U","ARG_OF_PERICENTER":"273.5239","ECCENTRICITY":"0.00014850","TLE_LINE2":"2 56102  43.0012 193.9403 0001485 273.5239  86.5434 15.02536861 11609","SITE":"AFETR","RCS_SIZE":"LARGE","REV_AT_EPOCH":"1160","OBJECT_TYPE":"PAYLOAD","MEAN_MOTION_DOT":"0.00000554","GP_ID":"233842972","MEAN_ELEMENT_THEORY":"SGP4","INCLINATION":"43.0012"},{"LAUNCH_DATE":"2023-03-29","MEAN_MOTION_DDOT":"0.0000000000000","TIME_SYSTEM":"UTC","APOAPSIS":"560.009","TLE_LINE1":"1 56103U 23046L   23164.80673202  .00000442  00000-0  47771-4 0  9994","MEAN_ANOMALY":"94.7634","OBJECT_NAME":"STARLINK-6096","NORAD_CAT_ID":"56103","COUNTRY_CODE":"US","EPOCH":"2023-06-13T19:21:41.646528","BSTAR":"0.00004777100000","EPHEMERIS_TYPE":"0","FILE":"3932371","REF_FRAME":"TEME","PERIOD":"95.838","MEAN_MOTION":"15.02529774","OBJECT_ID":"2023-046L","SEMIMAJOR_AXIS":"6937.236","OBJECT_TYPE":"PAYLOAD","RCS_SIZE":"LARGE","REV_AT_EPOCH":"1165","MEAN_ELEMENT_THEORY":"SGP4","INCLINATION":"43.0011","GP_ID":"233875934","MEAN_MOTION_DOT":"0.00000442","PERIAPSIS":"558.192","ARG_OF_PERICENTER":"265.3059","CLASSIFICATION_TYPE":"U","DECAY_DATE":null,"ELEMENT_SET_NO":"999","TLE_LINE2":"2 56103  43.0011 192.0321 0001310 265.3059  94.7634 15.02529774 11657","SITE":"AFETR","ECCENTRICITY":"0.00013100","CENTER_NAME":"EARTH","RA_OF_ASC_NODE":"192.0321"},{"RA_OF_ASC_NODE":"193.5073","CENTER_NAME":"EARTH","ELEMENT_SET_NO":"999","DECAY_DATE":null,"PERIAPSIS":"559.659","ARG_OF_PERICENTER":"271.8609","CLASSIFICATION_TYPE":"U","ECCENTRICITY":"0.00014390","SITE":"AFETR","TLE_LINE2":"2 56104  43.0016 193.5073 0001439 271.8609  88.2068 15.02024279 11613","RCS_SIZE":"LARGE","REV_AT_EPOCH":"1161","OBJECT_TYPE":"PAYLOAD","GP_ID":"233843974","MEAN_MOTION_DOT":"-0.00052884","INCLINATION":"43.0016","MEAN_ELEMENT_THEORY":"SGP4","SEMIMAJOR_AXIS":"6938.792","OBJECT_ID":"2023-046M","MEAN_MOTION":"15.02024279","EPHEMERIS_TYPE":"0","REF_FRAME":"TEME","PERIOD":"95.871","FILE":"3932134","MEAN_ANOMALY":"88.2068","TLE_LINE1":"1 56104U 23046M   23164.54486790 -.00052884  00000-0 -39830-2 0  9994","OBJECT_NAME":"STARLINK-6062","BSTAR":"-0.00398300000000","EPOCH":"2023-06-13T13:04:36.586560","NORAD_CAT_ID":"56104","COUNTRY_CODE":"US","MEAN_MOTION_DDOT":"0.0000000000000","LAUNCH_DATE":"2023-03-29","APOAPSIS":"561.656","TIME_SYSTEM":"UTC"},{"MEAN_MOTION":"15.02535015","OBJECT_ID":"2023-046N","SEMIMAJOR_AXIS":"6937.220","FILE":"3931996","PERIOD":"95.838","REF_FRAME":"TEME","EPHEMERIS_TYPE":"0","COUNTRY_CODE":"US","NORAD_CAT_ID":"56105","EPOCH":"2023-06-13T11:08:40.072416","BSTAR":"-0.00000423060000","TLE_LINE1":"1 56105U 23046N   23164.46435269 -.00000261  00000-0 -42306-5 0  9998","MEAN_ANOMALY":"85.0409","OBJECT_NAME":"STARLINK-6066","TIME_SYSTEM":"UTC","APOAPSIS":"560.019","LAUNCH_DATE":"2023-03-29","MEAN_MOTION_DDOT":"0.0000000000000","RA_OF_ASC_NODE":"193.7618","CENTER_NAME":"EARTH","TLE_LINE2":"2 56105  43.0013 193.7618 0001347 275.0279  85.0409 15.02535015 12143","SITE":"AFETR","ECCENTRICITY":"0.00013470","PERIAPSIS":"558.150","CLASSIFICATION_TYPE":"U","ARG_OF_PERICENTER":"275.0279","ELEMENT_SET_NO":"999","DECAY_DATE":null,"INCLINATION":"43.0013","MEAN_ELEMENT_THEORY":"SGP4","MEAN_MOTION_DOT":"-0.00000261","GP_ID":"233814411","OBJECT_TYPE":"PAYLOAD","RCS_SIZE":"LARGE","REV_AT_EPOCH":"1214"},{"RA_OF_ASC_NODE":"192.0040","CENTER_NAME":"EARTH","ARG_OF_PERICENTER":"273.4013","PERIAPSIS":"559.788","CLASSIFICATION_TYPE":"U","ELEMENT_SET_NO":"999","DECAY_DATE":null,"TLE_LINE2":"2 56106  43.0016 192.0040 0001346 273.4013  86.6675 15.02003100 11657","SITE":"AFETR","ECCENTRICITY":"0.00013460","OBJECT_TYPE":"PAYLOAD","REV_AT_EPOCH":"1165","RCS_SIZE":"LARGE","MEAN_ELEMENT_THEORY":"SGP4","INCLINATION":"43.0016","GP_ID":"233875182","MEAN_MOTION_DOT":"-0.00050968","MEAN_MOTION":"15.02003100","OBJECT_ID":"2023-046P","SEMIMAJOR_AXIS":"6938.857","EPHEMERIS_TYPE":"0","FILE":"3932371","REF_FRAME":"TEME","PERIOD":"95.872","OBJECT_NAME":"STARLINK-6078","TLE_LINE1":"1 56106U 23046P   23164.80310776 -.00050968  00000-0 -38393-2 0  9999","MEAN_ANOMALY":"86.6675","NORAD_CAT_ID":"56106","COUNTRY_CODE":"US","EPOCH":"2023-06-13T19:16:28.510464","BSTAR":"-0.00383930000000","LAUNCH_DATE":"2023-03-29","MEAN_MOTION_DDOT":"0.0000000000000","TIME_SYSTEM":"UTC","APOAPSIS":"561.656"},{"OBJECT_TYPE":"PAYLOAD","REV_AT_EPOCH":"1165","RCS_SIZE":"LARGE","INCLINATION":"42.9999","MEAN_ELEMENT_THEORY":"SGP4","GP_ID":"233876435","MEAN_MOTION_DOT":"0.00003053","PERIAPSIS":"558.024","ARG_OF_PERICENTER":"284.0260","CLASSIFICATION_TYPE":"U","DECAY_DATE":null,"ELEMENT_SET_NO":"999","SITE":"AFETR","TLE_LINE2":"2 56107  42.9999 191.9149 0001489 284.0260  76.0417 15.02544131 11655","ECCENTRICITY":"0.00014890","CENTER_NAME":"EARTH","RA_OF_ASC_NODE":"191.9149","LAUNCH_DATE":"2023-03-29","MEAN_MOTION_DDOT":"0.0000000000000","APOAPSIS":"560.089","TIME_SYSTEM":"UTC","TLE_LINE1":"1 56107U 23046Q   23164.79119358  .00003053  00000-0  24089-3 0  9990","OBJECT_NAME":"STARLINK-6030","MEAN_ANOMALY":"76.0417","NORAD_CAT_ID":"56107","COUNTRY_CODE":"US","BSTAR":"0.00024089000000","EPOCH":"2023-06-13T18:59:19.125312","EPHEMERIS_TYPE":"0","FILE":"3932371","REF_FRAME":"TEME","PERIOD":"95.837","SEMIMAJOR_AXIS":"6937.192","OBJECT_ID":"2023-046Q","MEAN_MOTION":"15.02544131"}];
